satname,norad_id,inclination_deg,eccentricity,mean_motion_rev_per_day,perigee_km,apogee_km,l1,l2
STARLINK-1008,44714,53.1529,0.0002895,15.47166998,423.04869695126763,426.9877238180816,1 44714U 19074B   26146.36954964  .00049547  00000+0  96233-3 0  9990,2 44714  53.1529 172.9655 0002895  41.2924 318.8303 15.47166998360830
STARLINK-1012,44718,53.1569,0.0002744,15.4744912,422.3247516845704,426.05786946141234,1 44718U 19074F   26146.95085232  .00057963  00000+0  11123-2 0  9997,2 44718  53.1569 170.4966 0002744  37.4751 322.6448 15.47449120360917
STARLINK-1017,44723,53.048,0.000543,15.30303168,471.18584275673675,478.62824859033753,1 44723U 19074L   26146.33982478  .00029667  00000+0  10062-2 0  9994,2 44723  53.0480 171.3541 0005430 357.0198   3.0768 15.30303168360833
STARLINK-1020,44725,53.1585,0.0003991,15.52453687,406.85559043154626,412.2735338184357,1 44725U 19074N   26146.43296278  .00059565  00000+0  95755-3 0  9996,2 44725  53.1585 197.4767 0003991  20.6226 339.4945 15.52453687360475
STARLINK-1036,44741,53.042,0.0003039,15.67654029,363.56715483330936,367.66600826017293,1 44741U 19074AE  26146.30131218  .00050422  00000+0  45515-3 0  9994,2 44741  53.0420 168.7449 0003039 335.6543  24.4328 15.67654029360860
STARLINK-1039,44744,53.0585,0.0003198,15.27616085,480.74687393578733,485.13521945445336,1 44744U 19074AH  26146.47781171  .00025810  00000+0  95271-3 0  9991,2 44744  53.0585 215.8451 0003198   6.2377 353.8660 15.27616085360228
STARLINK-1042,44747,53.0425,0.0003501,15.53467151,404.23675505974734,408.98743637656844,1 44747U 19074AL  26146.96872829  .00027214  00000+0  42748-3 0  9990,2 44747  53.0425  78.0879 0003501  67.9524 292.1857 15.53467151362225
STARLINK-1043,44748,53.0484,0.0001003,15.61460966,382.7580029673918,384.11437454905627,1 44748U 19074AM  26146.47650563  .00033006  00000+0  38353-3 0  9999,2 44748  53.0484 177.5457 0001003  67.5447 292.5672 15.61460966360765
STARLINK-1046,44751,53.0478,0.0007212,15.53457539,401.7469014933222,411.53326395744625,1 44751U 19074AQ  26146.38301586  .00063677  00000+0  98548-3 0  9990,2 44751  53.0478 198.8858 0007212  22.7486 337.3842 15.53457539360453
STARLINK-1047,44752,53.0681,0.0003723,15.34147947,460.90537363780913,465.9996211775788,1 44752U 19074AR  26146.25165140  .00009452  00000+0  29281-3 0  9990,2 44752  53.0681 143.1977 0003723  86.8211 273.3216 15.34147947361245
STARLINK-1048,44753,53.0445,0.0007285,15.65876033,365.8039333003053,375.6370186427948,1 44753U 19074AS  26146.40728055  .00051229  00000+0  49612-3 0  9997,2 44753  53.0445 150.0583 0007285  16.7937 343.3318 15.65876033361136
STARLINK-1063,44768,53.1566,0.0001788,15.47203761,423.6940588792313,426.12682864512135,1 44768U 19074BH  26146.89889408  .00052926  00000+0  10257-2 0  9993,2 44768  53.1566 211.4608 0001788  22.8981 337.2107 15.47203761360359
STARLINK-1067,44771,53.0427,0.0006846,15.72532053,347.0559732118518,356.2704156380596,1 44771U 19074BL  26146.39543113  .00071041  00000+0  52022-3 0  9998,2 44771  53.0427 182.6073 0006846 344.9473  15.1340 15.72532053360681
STARLINK-1068,44772,53.0415,0.0002546,15.73340163,347.64577197720064,351.0714127328283,1 44772U 19074BM  26146.91400196  .00072802  00000+0  51542-3 0  9992,2 44772  53.0415 153.7493 0002546  67.0722 293.0565 15.73340163361123
STARLINK-1114,44927,53.0421,0.000162,15.63513831,376.4219292336111,378.610760917416,1 44927U 20001P   26146.85513593  .00093457  00000+0  98505-3 0  9994,2 44927  53.0421 310.2189 0001620 338.6733  21.4212 15.63513831352276
STARLINK-1123,44930,53.1455,0.0003021,15.55887536,397.52635179031586,401.6214447150405,1 44930U 20001S   26146.96449165  .00077723  00000+0  10982-2 0  9993,2 44930  53.1455 335.8822 0003021 246.1957 113.8738 15.55887536351931
STARLINK-1094,44941,53.1537,0.0003064,15.52570886,407.1433216766527,411.3026158655148,1 44941U 20001AD  26146.96191268  .00075809  00000+0  12092-2 0  9990,2 44941  53.1537 310.6138 0003064 286.6285  73.4389 15.52570886352292
STARLINK-1122,44949,53.1574,0.0003008,15.52278406,408.03362971590104,412.11741837036607,1 44949U 20001AM  26146.77704725  .00059025  00000+0  95509-3 0  9992,2 44949  53.1574 312.0749 0003008 299.2219  60.8490 15.52278406352252
STARLINK-1080,44961,53.0456,0.0001144,15.66366084,368.54086919546717,370.08468570454716,1 44961U 20001AZ  26147.00002315 -.00090210  00000+0 -85768-3 0  9998,2 44961  53.0456 270.0951 0001144  40.9363 264.3864 15.66366084  5832
STARLINK-1090,44968,53.1499,0.0001736,15.48714925,419.3040848939718,421.66456621820544,1 44968U 20001BG  26146.86442775  .00060821  00000+0  11161-2 0  9994,2 44968  53.1499 299.0739 0001736 299.8259  60.2576 15.48714925352444
STARLINK-1132,45044,53.1514,0.0002112,15.53701511,404.4970102642974,407.3626000828026,1 45044U 20006A   26146.49247312  .00059649  00000+0  91682-3 0  9997,2 45044  53.1514 242.3323 0002112 346.4701  13.6253 15.53701511348989
STARLINK-1131,45047,53.1572,0.0003079,15.50576233,412.95091731370394,417.1341572727688,1 45047U 20006D   26146.80355894  .00050392  00000+0  86851-3 0  9998,2 45047  53.1572 273.3872 0003079 324.2755  35.8049 15.50576233348577
STARLINK-1134,45048,53.0269,0.0007438,15.55052345,396.9574069310602,407.04353943616843,1 45048U 20006E   26146.50443635  .00102142  00000+0  14800-2 0  9992,2 45048  53.0269 225.3213 0007438  23.6122 336.5228 15.55052345349206
STARLINK-1156,45054,53.1585,0.0002464,15.3387114,462.58960474192645,465.9615456589854,1 45054U 20006L   26146.68575988  .00035524  00000+0  10753-2 0  9997,2 45054  53.1585 278.0826 0002464 319.2154  40.8664 15.33871140348490
STARLINK-1166,45060,53.0463,0.0003562,15.57214297,393.3107206068771,398.1364188767602,1 45060U 20006S   26146.77975286  .00077481  00000+0  10421-2 0  9999,2 45060  53.0463 257.1256 0003562 325.7692  34.3089 15.57214297348786
STARLINK-1169,45061,53.1558,0.000359,15.36954054,452.6694275308064,457.5757079004261,1 45061U 20006T   26146.74542310  .00061709  00000+0  16795-2 0  9991,2 45061  53.1558 276.6692 0003590 279.5063  80.5535 15.36954054348522
STARLINK-1171,45062,53.0417,0.0002211,15.72525367,350.19430703304533,353.1702331142724,1 45062U 20006U   26146.46383682  .00067483  00000+0  49528-3 0  9992,2 45062  53.0417 225.9292 0002211 315.6484  44.4356 15.72525367349192
STARLINK-1133,45064,53.1573,0.0003291,15.33834924,462.13140734236276,466.6351541911645,1 45064U 20006W   26146.59157547  .00037662  00000+0  11403-2 0  9993,2 45064  53.1573 255.3015 0003291 327.0085  33.0712 15.33834924348818
STARLINK-1167,45071,53.1575,0.000265,15.36138718,455.7288244839492,459.3517334417993,1 45071U 20006AD  26146.67801858  .00040005  00000+0  11247-2 0  9992,2 45071  53.1575 254.1670 0002650 276.3090  83.7612 15.36138718348836
STARLINK-1168,45072,53.1582,0.0002847,15.33944988,462.1079937104623,466.00393838533,1 45072U 20006AE  26146.57232943  .00036688  00000+0  11074-2 0  9995,2 45072  53.1582 255.5988 0002847 331.6037  28.4809 15.33944988348808
STARLINK-1172,45074,53.1545,0.0002832,15.37137804,452.64296512692727,456.5130148972694,1 45074U 20006AG  26146.70856710  .00041157  00000+0  11201-2 0  9995,2 45074  53.1545 253.4486 0002832 289.9428  70.1270 15.37137804348847
STARLINK-1153,45080,53.1588,0.0003677,15.36142475,455.0156590099514,460.04260788448755,1 45080U 20006AN  26146.53125941  .00036535  00000+0  10284-2 0  9992,2 45080  53.1588 254.7700 0003677 288.3941  71.6663 15.36142475348813
STARLINK-1151,45081,53.0491,0.0003703,15.75843255,339.7441185672187,344.7212243458998,1 45081U 20006AP  26146.45895405  .00083275  00000+0  52776-3 0  9999,2 45081  53.0491 214.9539 0003703 330.3609  29.7200 15.75843255349340
STARLINK-1185,45087,53.1598,0.0004402,15.4442092,430.0818179660937,436.07841351479146,1 45087U 20006AV  26146.54484107  .00045413  00000+0  97003-3 0  9992,2 45087  53.1598 235.5580 0004402 336.9799  23.1010 15.44420920349083
STARLINK-1183,45088,53.1573,0.0003519,15.33729999,462.28735657364996,467.103341981071,1 45088U 20006AW  26146.68068187  .00025142  00000+0  76876-3 0  9996,2 45088  53.1573 239.6906 0003519 335.9861  24.0976 15.33729999349033
STARLINK-1152,45096,53.0342,0.0004141,15.47210097,422.0747366625683,427.7090051734622,1 45096U 20006BE  26146.44894162  .00051065  00000+0  98965-3 0  9995,2 45096  53.0342 197.1095 0004141  26.7193 333.4027 15.47210097349591
STARLINK-1184,45098,53.0531,0.0004003,15.13667356,522.2639845173808,527.7906578729289,1 45098U 20006BG  26146.52789944  .00018085  00000+0  10078-2 0  9990,2 45098  53.0531 252.8840 0004003   7.6859 352.4194 15.13667356348811
STARLINK-1193,45100,53.0466,0.0003898,15.66518153,366.246114373057,371.5060857858798,1 45100U 20006BJ  26146.46465450  .00050760  00000+0  47960-3 0  9997,2 45100  53.0466 210.5659 0003898 297.8180  62.2439 15.66518153349404
STARLINK-1143,45179,53.0357,0.000462,15.84629012,314.27622842550227,320.46287647996724,1 45179U 20012B   26147.00002315  .00213996  00000+0  88928-3 0  9999,2 45179  53.0357 300.8120 0004620 315.9794 276.3388 15.84629012  6017
STARLINK-1202,45183,53.1572,0.0002556,15.33559301,463.45395850884415,466.95227397626695,1 45183U 20012F   26146.94988481  .00028321  00000+0  86887-3 0  9991,2 45183  53.1572  35.1736 0002556 119.8504 240.2752 15.33559301346940
STARLINK-1216,45185,53.158,0.0002844,15.33837058,462.43092321854874,466.3229451443103,1 45185U 20012H   26146.86613150  .00042027  00000+0  12703-2 0  9996,2 45185  53.1580  35.4449 0002844 124.0475 236.0797 15.33837058346872
STARLINK-1225,45187,53.1574,0.0002412,15.33804834,462.8223334943632,466.12320844787973,1 45187U 20012K   26146.92964016  .00043107  00000+0  13039-2 0  9998,2 45187  53.1574  35.6065 0002412 122.5139 237.6096 15.33804834346925
STARLINK-1230,45189,53.1578,0.0002737,15.33729244,462.82471110280494,466.5704787600707,1 45189U 20012M   26146.93993249  .00036699  00000+0  11153-2 0  9994,2 45189  53.1578  35.6223 0002737 122.5823 237.5444 15.33729244344157
